[{"OBJECT_NAME":"ONEWEB-0341","OBJECT_ID":"2021-083X","EPOCH":"2026-06-10T05:39:08.095104","MEAN_MOTION":13.18685311,"ECCENTRICITY":0.0002131,"INCLINATION":87.9161,"RA_OF_ASC_NODE":336.8422,"ARG_OF_PERICENTER":104.3637,"MEAN_ANOMALY":255.7732,"EPHEMERIS_TYPE":0,"CLASSIFICATION_TYPE":"U","NORAD_CAT_ID":49207,"ELEMENT_SET_NO":999,"REV_AT_EPOCH":22907,"BSTAR":4.5817000000000005e-05,"MEAN_MOTION_DOT":3.1e-07,"MEAN_MOTION_DDOT":0.0},{"OBJECT_NAME":"ONEWEB-0342","OBJECT_ID":"2021-083Y","EPOCH":"2026-06-10T01:52:38.058528","MEAN_MOTION":13.20770524,"ECCENTRICITY":0.0001868,"INCLINATION":87.919,"RA_OF_ASC_NODE":275.8536,"ARG_OF_PERICENTER":102.5227,"MEAN_ANOMALY":257.6116,"EPHEMERIS_TYPE":0,"CLASSIFICATION_TYPE":"U","NORAD_CAT_ID":49208,"ELEMENT_SET_NO":999,"REV_AT_EPOCH":23584,"BSTAR":-6.5972e-05,"MEAN_MOTION_DOT":-1.4e-07,"MEAN_MOTION_DDOT":0.0},{"OBJECT_NAME":"ONEWEB-0343","OBJECT_ID":"2021-083Z","EPOCH":"2026-06-10T05:51:16.888608","MEAN_MOTION":13.18685942,"ECCENTRICITY":0.0001511,"INCLINATION":87.9164,"RA_OF_ASC_NODE":336.8391,"ARG_OF_PERICENTER":101.1546,"MEAN_ANOMALY":258.9757,"EPHEMERIS_TYPE":0,"CLASSIFICATION_TYPE":"U","NORAD_CAT_ID":49209,"ELEMENT_SET_NO":999,"REV_AT_EPOCH":22912,"BSTAR":8.971700000000001e-05,"MEAN_MOTION_DOT":4.8e-07,"MEAN_MOTION_DDOT":0.0},{"OBJECT_NAME":"ONEWEB-0344","OBJECT_ID":"2021-083AA","EPOCH":"2026-06-10T04:30:16.162848","MEAN_MOTION":13.13472497,"ECCENTRICITY":0.0002051,"INCLINATION":87.8937,"RA_OF_ASC_NODE":321.6354,"ARG_OF_PERICENTER":104.4585,"MEAN_ANOMALY":255.6772,"EPHEMERIS_TYPE":0,"CLASSIFICATION_TYPE":"U","NORAD_CAT_ID":49210,"ELEMENT_SET_NO":999,"REV_AT_EPOCH":22997,"BSTAR":0.00013791,"MEAN_MOTION_DOT":6.3e-07,"MEAN_MOTION_DDOT":0.0},{"OBJECT_NAME":"ONEWEB-0345","OBJECT_ID":"2021-083AB","EPOCH":"2026-06-10T04:18:04.459392","MEAN_MOTION":13.13471438,"ECCENTRICITY":0.0001988,"INCLINATION":87.8956,"RA_OF_ASC_NODE":321.6169,"ARG_OF_PERICENTER":103.8568,"MEAN_ANOMALY":256.2783,"EPHEMERIS_TYPE":0,"CLASSIFICATION_TYPE":"U","NORAD_CAT_ID":49211,"ELEMENT_SET_NO":999,"REV_AT_EPOCH":22998,"BSTAR":-0.00045443,"MEAN_MOTION_DOT":-1.53e-06,"MEAN_MOTION_DDOT":0.0},{"OBJECT_NAME":"ONEWEB-0346","OBJECT_ID":"2021-083AC","EPOCH":"2026-06-10T05:46:25.140000","MEAN_MOTION":13.18685072,"ECCENTRICITY":0.0002421,"INCLINATION":87.9158,"RA_OF_ASC_NODE":336.8404,"ARG_OF_PERICENTER":83.8068,"MEAN_ANOMALY":276.334,"EPHEMERIS_TYPE":0,"CLASSIFICATION_TYPE":"U","NORAD_CAT_ID":49212,"ELEMENT_SET_NO":999,"REV_AT_EPOCH":22906,"BSTAR":1.551e-05,"MEAN_MOTION_DOT":1.9e-07,"MEAN_MOTION_DDOT":0.0},{"OBJECT_NAME":"ONEWEB-0348","OBJECT_ID":"2021-083AD","EPOCH":"2026-06-10T01:38:05.075520","MEAN_MOTION":13.20770087,"ECCENTRICITY":0.0002481,"INCLINATION":87.9193,"RA_OF_ASC_NODE":275.8594,"ARG_OF_PERICENTER":100.4743,"MEAN_ANOMALY":259.667,"EPHEMERIS_TYPE":0,"CLASSIFICATION_TYPE":"U","NORAD_CAT_ID":49213,"ELEMENT_SET_NO":999,"REV_AT_EPOCH":23587,"BSTAR":-4.7892e-05,"MEAN_MOTION_DOT":-6e-08,"MEAN_MOTION_DDOT":0.0},{"OBJECT_NAME":"ONEWEB-0350","OBJECT_ID":"2021-083AE","EPOCH":"2026-06-10T04:38:01.512384","MEAN_MOTION":13.12943646,"ECCENTRICITY":0.0002036,"INCLINATION":87.8952,"RA_OF_ASC_NODE":321.6176,"ARG_OF_PERICENTER":100.582,"MEAN_ANOMALY":259.5538,"EPHEMERIS_TYPE":0,"CLASSIFICATION_TYPE":"U","NORAD_CAT_ID":49214,"ELEMENT_SET_NO":999,"REV_AT_EPOCH":23001,"BSTAR":0.00062269,"MEAN_MOTION_DOT":2.38e-06,"MEAN_MOTION_DDOT":0.0},{"OBJECT_NAME":"ONEWEB-0351","OBJECT_ID":"2021-083AF","EPOCH":"2026-06-10T01:28:10.462080","MEAN_MOTION":13.20769827,"ECCENTRICITY":0.0001725,"INCLINATION":87.9193,"RA_OF_ASC_NODE":275.8594,"ARG_OF_PERICENTER":127.5837,"MEAN_ANOMALY":232.5454,"EPHEMERIS_TYPE":0,"CLASSIFICATION_TYPE":"U","NORAD_CAT_ID":49215,"ELEMENT_SET_NO":999,"REV_AT_EPOCH":23583,"BSTAR":5.880100000000001e-05,"MEAN_MOTION_DOT":3.7e-07,"MEAN_MOTION_DDOT":0.0},{"OBJECT_NAME":"ONEWEB-0352","OBJECT_ID":"2021-083AG","EPOCH":"2026-06-10T04:03:27.317088","MEAN_MOTION":13.13470549,"ECCENTRICITY":0.0001521,"INCLINATION":87.8948,"RA_OF_ASC_NODE":321.6306,"ARG_OF_PERICENTER":105.5778,"MEAN_ANOMALY":254.552,"EPHEMERIS_TYPE":0,"CLASSIFICATION_TYPE":"U","NORAD_CAT_ID":49216,"ELEMENT_SET_NO":999,"REV_AT_EPOCH":23010,"BSTAR":-0.00092324,"MEAN_MOTION_DOT":-3.24e-06,"MEAN_MOTION_DDOT":0.0},{"OBJECT_NAME":"ONEWEB-0354","OBJECT_ID":"2021-083AH","EPOCH":"2026-06-10T00:18:06.018624","MEAN_MOTION":13.20772864,"ECCENTRICITY":0.0002355,"INCLINATION":87.9189,"RA_OF_ASC_NODE":275.8681,"ARG_OF_PERICENTER":103.5052,"MEAN_ANOMALY":256.6344,"EPHEMERIS_TYPE":0,"CLASSIFICATION_TYPE":"U","NORAD_CAT_ID":49217,"ELEMENT_SET_NO":999,"REV_AT_EPOCH":23586,"BSTAR":-0.00018284,"MEAN_MOTION_DOT":-6.1e-07,"MEAN_MOTION_DDOT":0.0},{"OBJECT_NAME":"ONEWEB-0355","OBJECT_ID":"2021-083AJ","EPOCH":"2026-06-10T04:45:06.177888","MEAN_MOTION":13.13469704,"ECCENTRICITY":0.0001793,"INCLINATION":87.8943,"RA_OF_ASC_NODE":321.6263,"ARG_OF_PERICENTER":102.8555,"MEAN_ANOMALY":257.2775,"EPHEMERIS_TYPE":0,"CLASSIFICATION_TYPE":"U","NORAD_CAT_ID":49218,"ELEMENT_SET_NO":999,"REV_AT_EPOCH":22998,"BSTAR":0.00078903,"MEAN_MOTION_DOT":3.01e-06,"MEAN_MOTION_DDOT":0.0},{"OBJECT_NAME":"ONEWEB-0357","OBJECT_ID":"2021-083AK","EPOCH":"2026-06-10T02:02:20.321088","MEAN_MOTION":13.20772309,"ECCENTRICITY":0.0001843,"INCLINATION":87.919,"RA_OF_ASC_NODE":275.8479,"ARG_OF_PERICENTER":106.2137,"MEAN_ANOMALY":253.92,"EPHEMERIS_TYPE":0,"CLASSIFICATION_TYPE":"U","NORAD_CAT_ID":49219,"ELEMENT_SET_NO":999,"REV_AT_EPOCH":23587,"BSTAR":-7.5866e-06,"MEAN_MOTION_DOT":1e-07,"MEAN_MOTION_DDOT":0.0},{"OBJECT_NAME":"ONEWEB-0332","OBJECT_ID":"2021-090A","EPOCH":"2026-06-10T01:31:30.726912","MEAN_MOTION":13.14502501,"ECCENTRICITY":0.0001651,"INCLINATION":87.8959,"RA_OF_ASC_NODE":291.1289,"ARG_OF_PERICENTER":97.5702,"MEAN_ANOMALY":262.5615,"EPHEMERIS_TYPE":0,"CLASSIFICATION_TYPE":"U","NORAD_CAT_ID":49279,"ELEMENT_SET_NO":999,"REV_AT_EPOCH":22664,"BSTAR":-0.0006684,"MEAN_MOTION_DOT":-2.35e-06,"MEAN_MOTION_DDOT":0.0},{"OBJECT_NAME":"ONEWEB-0347","OBJECT_ID":"2021-090B","EPOCH":"2026-06-10T01:47:47.218848","MEAN_MOTION":13.20770709,"ECCENTRICITY":0.0001726,"INCLINATION":87.919,"RA_OF_ASC_NODE":275.858,"ARG_OF_PERICENTER":97.554,"MEAN_ANOMALY":262.579,"EPHEMERIS_TYPE":0,"CLASSIFICATION_TYPE":"U","NORAD_CAT_ID":49280,"ELEMENT_SET_NO":999,"REV_AT_EPOCH":23010,"BSTAR":-8.8195e-05,"MEAN_MOTION_DOT":-2.3e-07,"MEAN_MOTION_DDOT":0.0},{"OBJECT_NAME":"ONEWEB-0349","OBJECT_ID":"2021-090C","EPOCH":"2026-06-10T00:44:46.145760","MEAN_MOTION":13.20772004,"ECCENTRICITY":0.0001972,"INCLINATION":87.9189,"RA_OF_ASC_NODE":275.8674,"ARG_OF_PERICENTER":101.4237,"MEAN_ANOMALY":258.7118,"EPHEMERIS_TYPE":0,"CLASSIFICATION_TYPE":"U","NORAD_CAT_ID":49281,"ELEMENT_SET_NO":999,"REV_AT_EPOCH":22888,"BSTAR":0.00016748,"MEAN_MOTION_DOT":8.1e-07,"MEAN_MOTION_DDOT":0.0}]