ONEWEB-0341             
1 49207U 21083X   26161.23551036  .00000031  00000+0  45817-4 0  9999
2 49207  87.9161 336.8422 0002131 104.3637 255.7732 13.18685311229073
ONEWEB-0342             
1 49208U 21083Y   26161.07821827 -.00000014  00000+0 -65972-4 0  9997
2 49208  87.9190 275.8536 0001868 102.5227 257.6116 13.20770524235848
ONEWEB-0343             
1 49209U 21083Z   26161.24394547  .00000048  00000+0  89717-4 0  9999
2 49209  87.9164 336.8391 0001511 101.1546 258.9757 13.18685942229126
ONEWEB-0344             
1 49210U 21083AA  26161.18768707  .00000063  00000+0  13791-3 0  9992
2 49210  87.8937 321.6354 0002051 104.4585 255.6772 13.13472497229973
ONEWEB-0345             
1 49211U 21083AB  26161.17921828 -.00000153  00000+0 -45443-3 0  9998
2 49211  87.8956 321.6169 0001988 103.8568 256.2783 13.13471438229985
ONEWEB-0346             
1 49212U 21083AC  26161.24056875  .00000019  00000+0  15510-4 0  9990
2 49212  87.9158 336.8404 0002421  83.8068 276.3340 13.18685072229063
ONEWEB-0348             
1 49213U 21083AD  26161.06811430 -.00000006  00000+0 -47892-4 0  9993
2 49213  87.9193 275.8594 0002481 100.4743 259.6670 13.20770087235877
ONEWEB-0350             
1 49214U 21083AE  26161.19307306  .00000238  00000+0  62269-3 0  9999
2 49214  87.8952 321.6176 0002036 100.5820 259.5538 13.12943646230016
ONEWEB-0351             
1 49215U 21083AF  26161.06123220  .00000037  00000+0  58801-4 0  9992
2 49215  87.9193 275.8594 0001725 127.5837 232.5454 13.20769827235839
ONEWEB-0352             
1 49216U 21083AG  26161.16906617 -.00000324  00000+0 -92324-3 0  9991
2 49216  87.8948 321.6306 0001521 105.5778 254.5520 13.13470549230107
ONEWEB-0354             
1 49217U 21083AH  26161.01256966 -.00000061  00000+0 -18284-3 0  9992
2 49217  87.9189 275.8681 0002355 103.5052 256.6344 13.20772864235869
ONEWEB-0355             
1 49218U 21083AJ  26161.19798817  .00000301  00000+0  78903-3 0  9997
2 49218  87.8943 321.6263 0001793 102.8555 257.2775 13.13469704229987
ONEWEB-0357             
1 49219U 21083AK  26161.08495742  .00000010  00000+0 -75866-5 0  9992
2 49219  87.9190 275.8479 0001843 106.2137 253.9200 13.20772309235879
ONEWEB-0332             
1 49279U 21090A   26161.06355008 -.00000235  00000+0 -66840-3 0  9994
2 49279  87.8959 291.1289 0001651  97.5702 262.5615 13.14502501226643
ONEWEB-0347             
1 49280U 21090B   26161.07485207 -.00000023  00000+0 -88195-4 0  9995
2 49280  87.9190 275.8580 0001726  97.5540 262.5790 13.20770709230103
ONEWEB-0349             
1 49281U 21090C   26161.03108965  .00000081  00000+0  16748-3 0  9991
2 49281  87.9189 275.8674 0001972 101.4237 258.7118 13.20772004228880
